SAUDISAT 2              
1 28371U 04025F   26160.40444944  .00000242  00000+0  65237-4 0  9994
2 28371  98.5506 160.1853 0023924 323.1050  36.8500 14.56679290164613
COSMOS 2407             
1 28380U 04028A   26160.52915698  .00000053  00000+0  39283-4 0  9991
2 28380  82.9609  80.5057 0037788 274.1800 264.5231 13.76334190 98824
COSMOS 2414             
1 28521U 05002A   26160.39051344  .00000051  00000+0  29326-4 0  9990
2 28521  82.9505  49.5445 0040040 353.7413   6.3244 13.87925958 82730
INMARSAT 4-F1           
1 28628U 05009A   26160.49435087  .00000048  00000+0  00000+0 0  9995
2 28628   5.1570  42.7396 0002662  37.9459 173.2742  1.00272088 77592
SJ-7                    
1 28737U 05024A   26160.33013483  .00006687  00000+0  29999-3 0  9995
2 28737  97.7296 190.2230 0017049  63.4540 296.8440 15.21421787146832
CUBESAT XI-V            
1 28895U 05043F   26160.38487946  .00001300  00000+0  21228-3 0  9999
2 28895  98.2976 315.8433 0013165 226.6554 133.3557 14.72610449100600
HINODE (SOLAR-B)        
1 29479U 06041A   26160.48645120  .00000693  00000+0  12751-3 0  9993
2 29479  98.0549 176.7525 0016353 316.1938  43.7969 14.68612510 53741
SHIJIAN-6 02B (SJ-6 02B)
1 29506U 06046B   26160.48193553  .00001641  00000+0  13181-3 0  9999
2 29506  97.7164 189.5883 0014828  82.4585 277.8323 15.01358727 69584
DMSP 5D-3 F17 (USA 191) 
1 29522U 06050A   26160.46216031  .00000036  00000+0  41047-4 0  9997
2 29522  98.7378 167.1903 0011314  79.2187 281.0260 14.14992087 11337
LAPAN-TUBSAT            
1 29709U 07001A   26160.51045325  .00000663  00000+0  82546-4 0  9998
2 29709  98.1347 159.5617 0011242 205.1460 154.9208 14.85944752 50017
HAIYANG-1B              
1 31113U 07010A   26160.45358038  .00000086  00000+0  48376-4 0  9993
2 31113  98.3490 142.5988 0012579 220.4164 139.6086 14.31024961999522
COSMO-SKYMED 2          
1 32376U 07059A   26160.53234170  .00000374  00000+0  53581-4 0  9991
2 32376  97.8885 344.2416 0001410  85.4336 274.7039 14.82148632   873
CARTOSAT-2A             
1 32783U 08021A   26160.47040256  .00000343  00000+0  52883-4 0  9996
2 32783  97.7637 209.4425 0012752 131.3519 228.8792 14.79226585977662
CUTE-1.7+APD II (CO-65) 
1 32785U 08021C   26160.49259447  .00005238  00000+0  33171-3 0  9990
2 32785  97.8272 141.7515 0010344  61.4937 298.7331 15.09379566984036
SEEDS II (CO-66)        
1 32791U 08021J   26160.23552937  .00016060  00000+0  51422-3 0  9993
2 32791  97.7519 157.7552 0002294  29.0945 331.0423 15.32477826986071
YUBILEINY (RS30)        
1 32953U 08025A   26160.45304782  .00000045  00000+0  25256-3 0  9996
2 32953  82.5050   0.2522 0019191 331.2977  28.7045 12.43179072818737
FENGYUN 3A              
1 32958U 08026A   26160.43509877  .00000067  00000+0  52091-4 0  9994
2 32958  98.6882 101.4134 0009268 144.1259 216.0541 14.19569565934304
HUANJING 1A (HJ-1A)     
1 33320U 08041A   26160.54695731  .00000908  00000+0  11495-3 0  9998
2 33320  97.6685 146.6813 0019225 158.7714 201.4303 14.83969547957274
HUANJING 1B (HJ-1B)     
1 33321U 08041B   26160.51257663  .00000661  00000+0  86194-4 0  9999
2 33321  97.6520 149.8429 0035308 206.6820 153.2578 14.83302970957271
SHIJIAN-6 03A (SJ-6 03A)
1 33408U 08053A   26160.52989630  .00004614  00000+0  23616-3 0  9996
2 33408  97.8420 193.5848 0012445  45.4482 314.7764 15.17091998961807
SHIJIAN-6 03B (SJ-6 03B)
1 33409U 08053B   26160.51683319  .00001802  00000+0  13353-3 0  9994
2 33409  97.8588 180.2815 0021121  68.6440 291.7036 15.04291285961591
CHUANGXIN 1-02 (CX-1-02)
1 33434U 08056B   26160.53167425  .00000370  00000+0  15994-3 0  9994
2 33434  98.6141 186.8749 0014550 158.0447 202.1361 14.30152855917528
