OBJECT_NAME,OBJECT_ID,EPOCH,MEAN_MOTION,ECCENTRICITY,INCLINATION,RA_OF_ASC_NODE,ARG_OF_PERICENTER,MEAN_ANOMALY,EPHEMERIS_TYPE,CLASSIFICATION_TYPE,NORAD_CAT_ID,ELEMENT_SET_NO,REV_AT_EPOCH,BSTAR,MEAN_MOTION_DOT,MEAN_MOTION_DDOT
SAUDISAT 2,2004-025F,2026-06-09T09:42:24.431616,14.56679290,.0023924,98.5506,160.1853,323.1050,36.8500,0,U,28371,999,16461,.65237E-4,.242E-5,0
COSMOS 2407,2004-028A,2026-06-09T12:41:59.163072,13.76334190,.0037788,82.9609,80.5057,274.1800,264.5231,0,U,28380,999,9882,.39283E-4,.53E-6,0
COSMOS 2414,2005-002A,2026-06-09T09:22:20.361216,13.87925958,.004004,82.9505,49.5445,353.7413,6.3244,0,U,28521,999,8273,.29326E-4,.51E-6,0
INMARSAT 4-F1,2005-009A,2026-06-09T11:51:51.915168,1.00272088,.0002662,5.1570,42.7396,37.9459,173.2742,0,U,28628,999,7759,0,.48E-6,0
SJ-7,2005-024A,2026-06-09T07:55:23.649312,15.21421787,.0017049,97.7296,190.2230,63.4540,296.8440,0,U,28737,999,14683,.29999E-3,.6687E-4,0
CUBESAT XI-V,2005-043F,2026-06-09T09:14:13.585344,14.72610449,.0013165,98.2976,315.8433,226.6554,133.3557,0,U,28895,999,10060,.21228E-3,.13E-4,0
HINODE (SOLAR-B),2006-041A,2026-06-09T11:40:29.383680,14.68612510,.0016353,98.0549,176.7525,316.1938,43.7969,0,U,29479,999,5374,.12751E-3,.693E-5,0
SHIJIAN-6 02B (SJ-6 02B),2006-046B,2026-06-09T11:33:59.229792,15.01358727,.0014828,97.7164,189.5883,82.4585,277.8323,0,U,29506,999,6958,.13181E-3,.1641E-4,0
DMSP 5D-3 F17 (USA 191),2006-050A,2026-06-09T11:05:30.650784,14.14992087,.0011314,98.7378,167.1903,79.2187,281.0260,0,U,29522,999,1133,.41047E-4,.36E-6,0
LAPAN-TUBSAT,2007-001A,2026-06-09T12:15:03.160800,14.85944752,.0011242,98.1347,159.5617,205.1460,154.9208,0,U,29709,999,5001,.82546E-4,.663E-5,0
HAIYANG-1B,2007-010A,2026-06-09T10:53:09.344832,14.31024961,.0012579,98.3490,142.5988,220.4164,139.6086,0,U,31113,999,99952,.48376E-4,.86E-6,0
COSMO-SKYMED 2,2007-059A,2026-06-09T12:46:34.322880,14.82148632,.000141,97.8885,344.2416,85.4336,274.7039,0,U,32376,999,87,.53581E-4,.374E-5,0
CARTOSAT-2A,2008-021A,2026-06-09T11:17:22.781184,14.79226585,.0012752,97.7637,209.4425,131.3519,228.8792,0,U,32783,999,97766,.52883E-4,.343E-5,0
CUTE-1.7+APD II (CO-65),2008-021C,2026-06-09T11:49:20.162208,15.09379566,.0010344,97.8272,141.7515,61.4937,298.7331,0,U,32785,999,98403,.33171E-3,.5238E-4,0
SEEDS II (CO-66),2008-021J,2026-06-09T05:39:09.737568,15.32477826,.0002294,97.7519,157.7552,29.0945,331.0423,0,U,32791,999,98607,.51422E-3,.1606E-3,0
YUBILEINY (RS30),2008-025A,2026-06-09T10:52:23.331648,12.43179072,.0019191,82.5050,0.2522,331.2977,28.7045,0,U,32953,999,81873,.25256E-3,.45E-6,0
FENGYUN 3A,2008-026A,2026-06-09T10:26:32.533728,14.19569565,.0009268,98.6882,101.4134,144.1259,216.0541,0,U,32958,999,93430,.52091E-4,.67E-6,0
HUANJING 1A (HJ-1A),2008-041A,2026-06-09T13:07:37.111584,14.83969547,.0019225,97.6685,146.6813,158.7714,201.4303,0,U,33320,999,95727,.11495E-3,.908E-5,0
HUANJING 1B (HJ-1B),2008-041B,2026-06-09T12:18:06.620832,14.83302970,.0035308,97.6520,149.8429,206.6820,153.2578,0,U,33321,999,95727,.86194E-4,.661E-5,0
SHIJIAN-6 03A (SJ-6 03A),2008-053A,2026-06-09T12:43:03.040320,15.17091998,.0012445,97.8420,193.5848,45.4482,314.7764,0,U,33408,999,96180,.23616E-3,.4614E-4,0
SHIJIAN-6 03B (SJ-6 03B),2008-053B,2026-06-09T12:24:14.387616,15.04291285,.0021121,97.8588,180.2815,68.6440,291.7036,0,U,33409,999,96159,.13353E-3,.1802E-4,0
CHUANGXIN 1-02 (CX-1-02),2008-056B,2026-06-09T12:45:36.655200,14.30152855,.001455,98.6141,186.8749,158.0447,202.1361,0,U,33434,999,91752,.15994E-3,.37E-5,0
